H1 CPF  1  SGF 2022  1 23  2  5231 larets    
H2  0304206 5557    27944 2022  1 22  0  0  0 2022  1 27 23 57  0   180 1 1  0 0 0
H9
10 0 59605  63360.00000  0   -617186.991   -858646.396  -6991169.079
10 0 59605  63540.00000  0  -1406720.620    247426.233  -6923200.018
10 0 59605  63720.00000  0  -2116287.524   1364238.841  -6603481.720
10 0 59605  63900.00000  0  -2720453.774   2448976.551  -6043328.297
10 0 59605  64080.00000  0  -3198613.531   3459240.206  -5262765.175
10 0 59605  64260.00000  0  -3535715.190   4354700.902  -4289894.032
10 0 59605  64440.00000  0  -3722769.680   5098736.331  -3159954.101
10 0 59605  64620.00000  0  -3757108.542   5659974.243  -1914096.833
10 0 59605  64800.00000  0  -3642380.987   6013674.969   -597910.272
10 0 59605  64980.00000  0  -3388278.367   6142878.455    740269.268
10 0 59605  65160.00000  0  -3009994.546   6039240.683   2051187.386
10 0 59605  65340.00000  0  -2527438.019   5703505.994   3286564.156
10 0 59605  65520.00000  0  -1964238.648   5145578.104   4400942.521
10 0 59605  65700.00000  0  -1346614.575   4384199.258   5353405.231
10 0 59605  65880.00000  0   -702156.646   3446260.218   6109093.524
10 0 59605  66060.00000  0    -58595.249   2365778.946   6640466.541
10 0 59605  66240.00000  0    557390.137   1182605.386   6928265.288
10 0 59605  66420.00000  0   1121271.595    -59089.341   6962164.083
10 0 59605  66600.00000  0   1611642.240  -1312480.377   6741101.188
10 0 59605  66780.00000  0   2011022.753  -2529859.832   6273292.723
10 0 59605  66960.00000  0   2306481.280  -3664455.361   5575928.858
10 0 59605  67140.00000  0   2490047.109  -4672235.463   4674557.182
10 0 59605  67320.00000  0   2558905.894  -5513634.499   3602169.169
10 0 59605  67500.00000  0   2515372.904  -6155136.016   2398010.539
10 0 59605  67680.00000  0   2366638.442  -6570641.797   1106146.554
10 0 59605  67860.00000  0   2124301.399  -6742557.441   -226162.877
10 0 59605  68040.00000  0   1803713.458  -6662549.944  -1550218.590
10 0 59605  68220.00000  0   1423159.835  -6331924.865  -2817700.998
10 0 59605  68400.00000  0   1002921.862  -5761602.618  -3982459.087
10 0 59605  68580.00000  0    564279.879  -4971702.598  -5002192.081
10 0 59605  68760.00000  0    128504.270  -3990773.165  -5839958.841
10 0 59605  68940.00000  0   -284118.684  -2854709.457  -6465467.133
10 0 59605  69120.00000  0   -655182.287  -1605411.077  -6856107.880
10 0 59605  69300.00000  0   -968942.089   -289237.455  -6997715.290
10 0 59605  69480.00000  0  -1212958.520   1044686.241  -6885044.877
10 0 59605  69660.00000  0  -1378580.283   2346260.537  -6521962.861
10 0 59605  69840.00000  0  -1461254.055   3566252.663  -5921348.307
10 0 59605  70020.00000  0  -1460651.326   4658142.498  -5104703.660
10 0 59605  70200.00000  0  -1380605.895   5579915.410  -4101464.508
10 0 59605  70380.00000  0  -1228861.232   6295734.242  -2948008.919
10 0 59605  70560.00000  0  -1016631.887   6777411.748  -1686384.645
10 0 59605  70740.00000  0   -757995.401   7005612.610   -362788.796
10 0 59605  70920.00000  0   -469140.365   6970713.427    974149.365
10 0 59605  71100.00000  0   -167506.765   6673264.482   2275216.380
10 0 59605  71280.00000  0    129132.331   6124005.965   3492503.492
10 0 59605  71460.00000  0    403596.128   5343447.655   4581231.739
10 0 59605  71640.00000  0    640181.472   4361043.852   5501446.838
10 0 59605  71820.00000  0    825460.964   3213991.216   6219495.570
10 0 59605  72000.00000  0    948955.469   1945744.869   6709231.981
10 0 59605  72180.00000  0   1003648.526    604311.861   6952929.534
10 0 59605  72360.00000  0    986325.917   -759601.747   6941875.045
10 0 59605  72540.00000  0    897728.760  -2094518.291   6676645.610
10 0 59605  72720.00000  0    742515.098  -3350135.482   6167066.806
10 0 59605  72900.00000  0    529032.029  -4479226.702   5431848.268
10 0 59605  73080.00000  0    268910.987  -5439422.280   4497910.110
10 0 59605  73260.00000  0    -23496.454  -6194822.975   3399426.728
10 0 59605  73440.00000  0   -331826.417  -6717385.915   2176594.319
10 0 59605  73620.00000  0   -638521.291  -6988008.105    874159.934
10 0 59605  73800.00000  0   -925719.069  -6997260.722   -460232.521
10 0 59605  73980.00000  0  -1176169.015  -6745727.955  -1777821.591
10 0 59605  74160.00000  0  -1374121.714  -6243929.440  -3030542.929
10 0 59605  74340.00000  0  -1506151.925  -5511843.720  -4172801.856
10 0 59605  74520.00000  0  -1561872.970  -4578056.823  -5163132.066
10 0 59605  74700.00000  0  -1534507.434  -3478587.987  -5965669.699
10 0 59605  74880.00000  0  -1421291.053  -2255460.497  -6551400.129
10 0 59605  75060.00000  0  -1223694.803   -955078.765  -6899146.895
10 0 59605  75240.00000  0   -947459.778    373520.896  -6996281.381
10 0 59605  75420.00000  0   -602443.523   1680484.678  -6839148.916
10 0 59605  75600.00000  0   -202281.076   2916968.268  -6433209.614
10 0 59605  75780.00000  0    236130.012   4036932.089  -5792892.503
10 0 59605  75960.00000  0    693312.381   4998856.208  -4941152.007
10 0 59605  76140.00000  0   1148036.126   5767314.162  -3908724.053
10 0 59605  76320.00000  0   1578263.744   6314347.801  -2733085.625
10 0 59605  76500.00000  0   1962174.044   6620574.472  -1457135.743
10 0 59605  76680.00000  0   2279218.099   6675966.723   -127632.349
10 0 59605  76860.00000  0   2511151.170   6480247.114   1206559.088
10 0 59605  77040.00000  0   2642982.243   6042868.090   2496322.663
10 0 59605  77220.00000  0   2663789.329   5382577.029   3694168.943
10 0 59605  77400.00000  0   2567357.154   4526587.932   4756046.965
10 0 59605  77580.00000  0   2352598.006   3509399.585   5643008.708
10 0 59605  77760.00000  0   2023734.968   2371328.334   6322639.465
10 0 59605  77940.00000  0   1590252.537   1156850.035   6770215.281
10 0 59605  78120.00000  0   1066613.545    -87183.635   6969559.920
10 0 59605  78300.00000  0    471758.851  -1313371.480   6913581.883
10 0 59605  78480.00000  0   -171591.210  -2475574.016   6604497.241
10 0 59605  78660.00000  0   -837812.503  -3530651.343   6053726.727
10 0 59605  78840.00000  0  -1499392.760  -4440063.384   5281472.369
10 0 59605  79020.00000  0  -2128054.882  -5171284.365   4316001.747
10 0 59605  79200.00000  0  -2695958.811  -5698996.853   3192644.281
10 0 59605  79380.00000  0  -3176924.660  -6006003.098   1952508.442
10 0 59605  79560.00000  0  -3547616.291  -6083806.732    640972.029
10 0 59605  79740.00000  0  -3788631.305  -5932843.062   -693997.856
10 0 59605  79920.00000  0  -3885442.438  -5562343.606  -2003630.645
10 0 59605  80100.00000  0  -3829141.167  -4989837.428  -3240167.626
10 0 59605  80280.00000  0  -3616944.287  -4240316.402  -4358622.745
10 0 59605  80460.00000  0  -3252440.863  -3345117.078  -5318411.048
10 0 59605  80640.00000  0  -2745576.262  -2340583.746  -6084786.268
10 0 59605  80820.00000  0  -2112380.146  -1266577.621  -6630044.923
10 0 59605  81000.00000  0  -1374450.863   -164897.131  -6934467.820
10 0 59605  81180.00000  0   -558220.942    922327.305  -6986977.383
10 0 59605  81360.00000  0    305969.122   1954207.978  -6785513.944
10 0 59605  81540.00000  0   1184966.365   2892604.822  -6337129.680
10 0 59605  81720.00000  0   2044047.821   3703523.221  -5657792.513
10 0 59605  81900.00000  0   2848271.756   4358358.091  -4771886.747
10 0 59605  82080.00000  0   3563893.149   4834942.236  -3711416.798
10 0 59605  82260.00000  0   4159792.460   5118358.235  -2514916.532
10 0 59605  82440.00000  0   4608855.205   5201465.804  -1226082.876
10 0 59605  82620.00000  0   4889228.902   5085111.202    107824.238
10 0 59605  82800.00000  0   4985387.054   4777995.915   1437757.005
10 0 59605  82980.00000  0   4888934.880   4296206.603   2714744.971
10 0 59605  83160.00000  0   4599117.783   3662428.976   3891771.101
10 0 59605  83340.00000  0   4122991.379   2904879.620   4925565.519
10 0 59605  83520.00000  0   3475253.539   2056023.124   5778228.506
10 0 59605  83700.00000  0   2677747.413   1151144.796   6418621.083
10 0 59605  83880.00000  0   1758672.336    226852.301   6823468.951
10 0 59605  84060.00000  0    751544.955   -680419.673   6978161.611
10 0 59605  84240.00000  0   -306051.526  -1535848.909   6877239.942
10 0 59605  84420.00000  0  -1373885.425  -2307562.212   6524556.593
10 0 59605  84600.00000  0  -2410608.216  -2967818.501   5933112.476
10 0 59605  84780.00000  0  -3375348.755  -3494003.630   5124590.469
10 0 59605  84960.00000  0  -4229334.849  -3869414.442   4128588.297
10 0 59605  85140.00000  0  -4937468.606  -4083794.163   2981552.600
10 0 59605  85320.00000  0  -5469785.888  -4133600.771   1725457.855
10 0 59605  85500.00000  0  -5802741.763  -4021997.924    406265.886
10 0 59605  85680.00000  0  -5920252.873  -3758561.488   -927779.835
10 0 59605  85860.00000  0  -5814442.749  -3358716.792  -2227953.326
10 0 59605  86040.00000  0  -5486045.570  -2842933.378  -3446859.443
10 0 59605  86220.00000  0  -4944454.141  -2235725.299  -4540173.517
10 0 59606      0.00000  0  -4207420.477  -1564512.978  -5468239.972
10 0 59606    180.00000  0  -3300429.396   -858403.887  -6197473.782
10 0 59606    360.00000  0  -2255779.685   -146948.544  -6701519.129
10 0 59606    540.00000  0  -1111417.404    541071.969  -6962139.069
10 0 59606    720.00000  0     90431.154   1178780.508  -6969823.715
10 0 59606    900.00000  0   1304780.612   1742228.396  -6724117.751
10 0 59606   1080.00000  0   2485529.472   2211281.329  -6233667.200
10 0 59606   1260.00000  0   3587184.016   2570342.427  -5515967.134
10 0 59606   1440.00000  0   4566603.088   2808884.914  -4596809.202
10 0 59606   1620.00000  0   5384712.149   2921777.824  -3509433.946
10 0 59606   1800.00000  0   6008116.036   2909385.959  -2293388.507
10 0 59606   1980.00000  0   6410535.024   2777435.382   -993118.733
10 0 59606   2160.00000  0   6573985.522   2536639.858    343667.504
10 0 59606   2340.00000  0   6489630.551   2202100.183   1667798.121
99
